<?xml version="1.0" encoding="UTF-8"?>
<ndm xmlns:xsi="http://www.w3.org/2001/XMLSchema-instance" xsi:noNamespaceSchemaLocation="https://sanaregistry.org/r/ndmxml_unqualified/ndmxml-2.0.0-master-2.0.xsd">
<omm id="CCSDS_OMM_VERS" version="2.0">
<header><CREATION_DATE/><ORIGINATOR/></header><body><segment><metadata><OBJECT_NAME>IRIDIUM 116</OBJECT_NAME><OBJECT_ID>2017-083C</OBJECT_ID><CENTER_NAME>EARTH</CENTER_NAME><REF_FRAME>TEME</REF_FRAME><TIME_SYSTEM>UTC</TIME_SYSTEM><MEAN_ELEMENT_THEORY>SGP4</MEAN_ELEMENT_THEORY></metadata><data><meanElements><EPOCH>2024-05-15T12:07:58.740672</EPOCH><MEAN_MOTION>14.34214769</MEAN_MOTION><ECCENTRICITY>.0002096</ECCENTRICITY><INCLINATION>86.3933</INCLINATION><RA_OF_ASC_NODE>280.7294</RA_OF_ASC_NODE><ARG_OF_PERICENTER>95.1847</ARG_OF_PERICENTER><MEAN_ANOMALY>264.9588</MEAN_ANOMALY></meanElements><tleParameters><EPHEMERIS_TYPE>0</EPHEMERIS_TYPE><CLASSIFICATION_TYPE>U</CLASSIFICATION_TYPE><NORAD_CAT_ID>43072</NORAD_CAT_ID><ELEMENT_SET_NO>999</ELEMENT_SET_NO><REV_AT_EPOCH>33485</REV_AT_EPOCH><BSTAR>.13844E-3</BSTAR><MEAN_MOTION_DOT>.407E-5</MEAN_MOTION_DOT><MEAN_MOTION_DDOT>0</MEAN_MOTION_DDOT></tleParameters></data></segment></body></omm>
<omm id="CCSDS_OMM_VERS" version="2.0">
<header><CREATION_DATE/><ORIGINATOR/></header><body><segment><metadata><OBJECT_NAME>IRIDIUM 130</OBJECT_NAME><OBJECT_ID>2017-083D</OBJECT_ID><CENTER_NAME>EARTH</CENTER_NAME><REF_FRAME>TEME</REF_FRAME><TIME_SYSTEM>UTC</TIME_SYSTEM><MEAN_ELEMENT_THEORY>SGP4</MEAN_ELEMENT_THEORY></metadata><data><meanElements><EPOCH>2024-05-15T02:59:58.465536</EPOCH><MEAN_MOTION>14.34214272</MEAN_MOTION><ECCENTRICITY>.0001917</ECCENTRICITY><INCLINATION>86.3952</INCLINATION><RA_OF_ASC_NODE>281.0900</RA_OF_ASC_NODE><ARG_OF_PERICENTER>94.2117</ARG_OF_PERICENTER><MEAN_ANOMALY>265.9298</MEAN_ANOMALY></meanElements><tleParameters><EPHEMERIS_TYPE>0</EPHEMERIS_TYPE><CLASSIFICATION_TYPE>U</CLASSIFICATION_TYPE><NORAD_CAT_ID>43073</NORAD_CAT_ID><ELEMENT_SET_NO>999</ELEMENT_SET_NO><REV_AT_EPOCH>33474</REV_AT_EPOCH><BSTAR>.14856E-3</BSTAR><MEAN_MOTION_DOT>.436E-5</MEAN_MOTION_DOT><MEAN_MOTION_DDOT>0</MEAN_MOTION_DDOT></tleParameters></data></segment></body></omm>
<omm id="CCSDS_OMM_VERS" version="2.0">
<header><CREATION_DATE/><ORIGINATOR/></header><body><segment><metadata><OBJECT_NAME>IRIDIUM 151</OBJECT_NAME><OBJECT_ID>2017-083E</OBJECT_ID><CENTER_NAME>EARTH</CENTER_NAME><REF_FRAME>TEME</REF_FRAME><TIME_SYSTEM>UTC</TIME_SYSTEM><MEAN_ELEMENT_THEORY>SGP4</MEAN_ELEMENT_THEORY></metadata><data><meanElements><EPOCH>2024-05-14T21:22:02.603424</EPOCH><MEAN_MOTION>14.34212681</MEAN_MOTION><ECCENTRICITY>.0002218</ECCENTRICITY><INCLINATION>86.3922</INCLINATION><RA_OF_ASC_NODE>281.0239</RA_OF_ASC_NODE><ARG_OF_PERICENTER>84.4719</ARG_OF_PERICENTER><MEAN_ANOMALY>275.6730</MEAN_ANOMALY></meanElements><tleParameters><EPHEMERIS_TYPE>0</EPHEMERIS_TYPE><CLASSIFICATION_TYPE>U</CLASSIFICATION_TYPE><NORAD_CAT_ID>43074</NORAD_CAT_ID><ELEMENT_SET_NO>999</ELEMENT_SET_NO><REV_AT_EPOCH>33473</REV_AT_EPOCH><BSTAR>.31699E-3</BSTAR><MEAN_MOTION_DOT>.908E-5</MEAN_MOTION_DOT><MEAN_MOTION_DDOT>0</MEAN_MOTION_DDOT></tleParameters></data></segment></body></omm>
<omm id="CCSDS_OMM_VERS" version="2.0">
<header><CREATION_DATE/><ORIGINATOR/></header><body><segment><metadata><OBJECT_NAME>IRIDIUM 134</OBJECT_NAME><OBJECT_ID>2017-083F</OBJECT_ID><CENTER_NAME>EARTH</CENTER_NAME><REF_FRAME>TEME</REF_FRAME><TIME_SYSTEM>UTC</TIME_SYSTEM><MEAN_ELEMENT_THEORY>SGP4</MEAN_ELEMENT_THEORY></metadata><data><meanElements><EPOCH>2024-05-15T11:40:34.248864</EPOCH><MEAN_MOTION>14.34212416</MEAN_MOTION><ECCENTRICITY>.0001993</ECCENTRICITY><INCLINATION>86.3931</INCLINATION><RA_OF_ASC_NODE>280.7742</RA_OF_ASC_NODE><ARG_OF_PERICENTER>99.0471</ARG_OF_PERICENTER><MEAN_ANOMALY>261.0950</MEAN_ANOMALY></meanElements><tleParameters><EPHEMERIS_TYPE>0</EPHEMERIS_TYPE><CLASSIFICATION_TYPE>U</CLASSIFICATION_TYPE><NORAD_CAT_ID>43075</NORAD_CAT_ID><ELEMENT_SET_NO>999</ELEMENT_SET_NO><REV_AT_EPOCH>33478</REV_AT_EPOCH><BSTAR>.27365E-4</BSTAR><MEAN_MOTION_DOT>.96E-6</MEAN_MOTION_DOT><MEAN_MOTION_DDOT>0</MEAN_MOTION_DDOT></tleParameters></data></segment></body></omm>
<omm id="CCSDS_OMM_VERS" version="2.0">
<header><CREATION_DATE/><ORIGINATOR/></header><body><segment><metadata><OBJECT_NAME>IRIDIUM 137</OBJECT_NAME><OBJECT_ID>2017-083G</OBJECT_ID><CENTER_NAME>EARTH</CENTER_NAME><REF_FRAME>TEME</REF_FRAME><TIME_SYSTEM>UTC</TIME_SYSTEM><MEAN_ELEMENT_THEORY>SGP4</MEAN_ELEMENT_THEORY></metadata><data><meanElements><EPOCH>2024-05-14T22:35:06.018432</EPOCH><MEAN_MOTION>14.34218671</MEAN_MOTION><ECCENTRICITY>.0001776</ECCENTRICITY><INCLINATION>86.3932</INCLINATION><RA_OF_ASC_NODE>281.0810</RA_OF_ASC_NODE><ARG_OF_PERICENTER>104.3913</ARG_OF_PERICENTER><MEAN_ANOMALY>255.7480</MEAN_ANOMALY></meanElements><tleParameters><EPHEMERIS_TYPE>0</EPHEMERIS_TYPE><CLASSIFICATION_TYPE>U</CLASSIFICATION_TYPE><NORAD_CAT_ID>43076</NORAD_CAT_ID><ELEMENT_SET_NO>999</ELEMENT_SET_NO><REV_AT_EPOCH>33477</REV_AT_EPOCH><BSTAR>.74127E-4</BSTAR><MEAN_MOTION_DOT>.227E-5</MEAN_MOTION_DOT><MEAN_MOTION_DDOT>0</MEAN_MOTION_DDOT></tleParameters></data></segment></body></omm>
<omm id="CCSDS_OMM_VERS" version="2.0">
<header><CREATION_DATE/><ORIGINATOR/></header><body><segment><metadata><OBJECT_NAME>IRIDIUM 141</OBJECT_NAME><OBJECT_ID>2017-083H</OBJECT_ID><CENTER_NAME>EARTH</CENTER_NAME><REF_FRAME>TEME</REF_FRAME><TIME_SYSTEM>UTC</TIME_SYSTEM><MEAN_ELEMENT_THEORY>SGP4</MEAN_ELEMENT_THEORY></metadata><data><meanElements><EPOCH>2024-05-14T22:25:58.130112</EPOCH><MEAN_MOTION>14.34212488</MEAN_MOTION><ECCENTRICITY>.0002094</ECCENTRICITY><INCLINATION>86.3942</INCLINATION><RA_OF_ASC_NODE>280.9579</RA_OF_ASC_NODE><ARG_OF_PERICENTER>90.0387</ARG_OF_PERICENTER><MEAN_ANOMALY>270.1048</MEAN_ANOMALY></meanElements><tleParameters><EPHEMERIS_TYPE>0</EPHEMERIS_TYPE><CLASSIFICATION_TYPE>U</CLASSIFICATION_TYPE><NORAD_CAT_ID>43077</NORAD_CAT_ID><ELEMENT_SET_NO>999</ELEMENT_SET_NO><REV_AT_EPOCH>33477</REV_AT_EPOCH><BSTAR>.29532E-3</BSTAR><MEAN_MOTION_DOT>.847E-5</MEAN_MOTION_DOT><MEAN_MOTION_DDOT>0</MEAN_MOTION_DDOT></tleParameters></data></segment></body></omm>
<omm id="CCSDS_OMM_VERS" version="2.0">
<header><CREATION_DATE/><ORIGINATOR/></header><body><segment><metadata><OBJECT_NAME>IRIDIUM 153</OBJECT_NAME><OBJECT_ID>2017-083J</OBJECT_ID><CENTER_NAME>EARTH</CENTER_NAME><REF_FRAME>TEME</REF_FRAME><TIME_SYSTEM>UTC</TIME_SYSTEM><MEAN_ELEMENT_THEORY>SGP4</MEAN_ELEMENT_THEORY></metadata><data><meanElements><EPOCH>2024-05-14T14:35:13.870752</EPOCH><MEAN_MOTION>14.34222091</MEAN_MOTION><ECCENTRICITY>.0002157</ECCENTRICITY><INCLINATION>86.3958</INCLINATION><RA_OF_ASC_NODE>249.5360</RA_OF_ASC_NODE><ARG_OF_PERICENTER>59.8864</ARG_OF_PERICENTER><MEAN_ANOMALY>300.2546</MEAN_ANOMALY></meanElements><tleParameters><EPHEMERIS_TYPE>0</EPHEMERIS_TYPE><CLASSIFICATION_TYPE>U</CLASSIFICATION_TYPE><NORAD_CAT_ID>43078</NORAD_CAT_ID><ELEMENT_SET_NO>999</ELEMENT_SET_NO><REV_AT_EPOCH>33583</REV_AT_EPOCH><BSTAR>.38872E-3</BSTAR><MEAN_MOTION_DOT>.1109E-4</MEAN_MOTION_DOT><MEAN_MOTION_DDOT>0</MEAN_MOTION_DDOT></tleParameters></data></segment></body></omm>
<omm id="CCSDS_OMM_VERS" version="2.0">
<header><CREATION_DATE/><ORIGINATOR/></header><body><segment><metadata><OBJECT_NAME>IRIDIUM 131</OBJECT_NAME><OBJECT_ID>2017-083K</OBJECT_ID><CENTER_NAME>EARTH</CENTER_NAME><REF_FRAME>TEME</REF_FRAME><TIME_SYSTEM>UTC</TIME_SYSTEM><MEAN_ELEMENT_THEORY>SGP4</MEAN_ELEMENT_THEORY></metadata><data><meanElements><EPOCH>2024-05-15T11:31:26.603328</EPOCH><MEAN_MOTION>14.34215332</MEAN_MOTION><ECCENTRICITY>.0002281</ECCENTRICITY><INCLINATION>86.3941</INCLINATION><RA_OF_ASC_NODE>280.8654</RA_OF_ASC_NODE><ARG_OF_PERICENTER>94.2966</ARG_OF_PERICENTER><MEAN_ANOMALY>265.8491</MEAN_ANOMALY></meanElements><tleParameters><EPHEMERIS_TYPE>0</EPHEMERIS_TYPE><CLASSIFICATION_TYPE>U</CLASSIFICATION_TYPE><NORAD_CAT_ID>43079</NORAD_CAT_ID><ELEMENT_SET_NO>999</ELEMENT_SET_NO><REV_AT_EPOCH>33478</REV_AT_EPOCH><BSTAR>.35736E-3</BSTAR><MEAN_MOTION_DOT>.1021E-4</MEAN_MOTION_DOT><MEAN_MOTION_DDOT>0</MEAN_MOTION_DDOT></tleParameters></data></segment></body></omm>

</ndm>
