IRIDIUM 116             
1 43072U 17083C   24136.50554098  .00000407  00000+0  13844-3 0  9990
2 43072  86.3933 280.7294 0002096  95.1847 264.9588 14.34214769334859
IRIDIUM 130             
1 43073U 17083D   24136.12498224  .00000436  00000+0  14856-3 0  9993
2 43073  86.3952 281.0900 0001917  94.2117 265.9298 14.34214272334746
IRIDIUM 151             
1 43074U 17083E   24135.89030791  .00000908  00000+0  31699-3 0  9996
2 43074  86.3922 281.0239 0002218  84.4719 275.6730 14.34212681334733
IRIDIUM 134             
1 43075U 17083F   24136.48650751  .00000096  00000+0  27365-4 0  9991
2 43075  86.3931 280.7742 0001993  99.0471 261.0950 14.34212416334789
IRIDIUM 137             
1 43076U 17083G   24135.94104188  .00000227  00000+0  74127-4 0  9994
2 43076  86.3932 281.0810 0001776 104.3913 255.7480 14.34218671334777
IRIDIUM 141             
1 43077U 17083H   24135.93470058  .00000847  00000+0  29532-3 0  9993
2 43077  86.3942 280.9579 0002094  90.0387 270.1048 14.34212488334770
IRIDIUM 153             
1 43078U 17083J   24135.60779943  .00001109  00000+0  38872-3 0  9992
2 43078  86.3958 249.5360 0002157  59.8864 300.2546 14.34222091335837
IRIDIUM 131             
1 43079U 17083K   24136.48016902  .00001021  00000+0  35736-3 0  9998
2 43079  86.3941 280.8654 0002281  94.2966 265.8491 14.34215332334786
